KUIPER-00156            
1 65775U 25217P   26065.62946681  .00006345  00000+0  86040-3 0  9996
2 65775  51.9036  39.1560 0000828  91.2412 268.8646 14.79940863 24666
KUIPER-00158            
1 65776U 25217Q   26065.36212033  .00006897  00000+0  92028-3 0  9990
2 65776  51.8971  60.1903 0001132  45.5533 314.5522 14.80505539 24351
KUIPER-00163            
1 65777U 25217R   26065.58334491  .00064183  00000+0  54075-2 0  9999
2 65777  51.8963  60.9649 0001982  43.4852  99.2484 14.97582517  5691
KUIPER-00165            
1 65778U 25217S   26065.34857629  .00001110  00000+0  17460-3 0  9996
2 65778  51.9013  50.3706 0000733  85.6762 274.4285 14.79927601 24488
KUIPER-00166            
1 65779U 25217T   26064.31536718  .00005827  00000+0  79159-3 0  9998
2 65779  51.9042  42.4609 0000677  95.0603 265.0437 14.79992371 24505
KUIPER-00167            
1 65780U 25217U   26065.40534780 -.00000146  00000+0  98335-5 0  9997
2 65780  51.8969  60.0858 0000615  73.7804 286.3226 14.79951769 24355
KUIPER-00168            
1 65781U 25217V   26065.28914602  .00005737  00000+0  78108-3 0  9993
2 65781  51.9015  43.1363 0001025  82.0294 278.0785 14.79925832 24589
KUIPER-00169            
1 65782U 25217W   26065.14942425  .00004726  00000+0  65034-3 0  9994
2 65782  51.9015  48.7635 0000791  93.0798 267.0255 14.79813971 24493
KUIPER-00170            
1 65783U 25217X   26065.21044939  .00000574  00000+0  10432-3 0  9995
2 65783  51.8994  53.4691 0000759  98.3119 261.7930 14.79922492 24437
KUIPER-00172            
1 65785U 25217Z   26065.58334491 -.00064246  00000+0 -75284-2 0  9995
2 65785  51.9017  32.5855 0003121 292.4381 167.5264 14.84859469  3259
KUIPER-00173            
1 65786U 25217AA  26065.51795693 -.00163282  00000+0 -21175-1 0  9993
2 65786  51.9027  46.4121 0000874  32.5897 327.5120 14.81364819 24550
KUIPER-00174            
1 65787U 25217AB  26065.32290879  .00005424  00000+0  73977-3 0  9999
2 65787  51.9037  43.0125 0001210  67.0786 293.0304 14.79940860 24581
KUIPER-00176            
1 65788U 25217AC  26065.37408788  .00001839  00000+0  27029-3 0  9998
2 65788  51.8999  57.7577 0000704  97.7411 262.3632 14.79924144 24381
KUIPER-00101            
1 65947U 25228A   26064.30587848  .00001277  00000+0  19647-3 0  9997
2 65947  51.9032  19.9631 0000569 116.5320 243.5700 14.79926940 22589
KUIPER-00113            
1 65948U 25228B   26065.56049296 -.00000916  00000+0 -91213-4 0  9998
2 65948  51.9021   9.4322 0000418 125.7029 234.3972 14.79936481 22838
KUIPER-00117            
1 65949U 25228C   26065.25400121 -.00000279  00000+0 -75303-5 0  9998
2 65949  51.9054  13.2925 0001166  68.8112 291.2975 14.79932164 22758
KUIPER-00121            
1 65950U 25228D   26065.02297167  .00003586  00000+0  49914-3 0  9998
2 65950  51.9019   9.3042 0001208 108.4687 251.6407 14.79934695 22797
