[{"OBJECT_NAME":"KUIPER-00156","OBJECT_ID":"2025-217P","EPOCH":"2026-03-06T15:06:25.932384","MEAN_MOTION":14.79940863,"ECCENTRICITY":8.288e-5,"INCLINATION":51.9036,"RA_OF_ASC_NODE":39.156,"ARG_OF_PERICENTER":91.2412,"MEAN_ANOMALY":268.8646,"EPHEMERIS_TYPE":0,"CLASSIFICATION_TYPE":"U","NORAD_CAT_ID":65775,"ELEMENT_SET_NO":999,"REV_AT_EPOCH":2466,"BSTAR":0.00086040366,"MEAN_MOTION_DOT":6.345e-5,"MEAN_MOTION_DDOT":0},{"OBJECT_NAME":"KUIPER-00158","OBJECT_ID":"2025-217Q","EPOCH":"2026-03-06T08:41:27.196512","MEAN_MOTION":14.80505539,"ECCENTRICITY":0.00011323,"INCLINATION":51.8971,"RA_OF_ASC_NODE":60.1903,"ARG_OF_PERICENTER":45.5533,"MEAN_ANOMALY":314.5522,"EPHEMERIS_TYPE":0,"CLASSIFICATION_TYPE":"U","NORAD_CAT_ID":65776,"ELEMENT_SET_NO":999,"REV_AT_EPOCH":2435,"BSTAR":0.0009202769,"MEAN_MOTION_DOT":6.897e-5,"MEAN_MOTION_DDOT":0},{"OBJECT_NAME":"KUIPER-00163","OBJECT_ID":"2025-217R","EPOCH":"2026-03-06T14:00:01.000224","MEAN_MOTION":14.97582517,"ECCENTRICITY":0.00019824,"INCLINATION":51.8963,"RA_OF_ASC_NODE":60.9649,"ARG_OF_PERICENTER":43.4852,"MEAN_ANOMALY":99.2484,"EPHEMERIS_TYPE":0,"CLASSIFICATION_TYPE":"U","NORAD_CAT_ID":65777,"ELEMENT_SET_NO":999,"REV_AT_EPOCH":569,"BSTAR":0.0054075263,"MEAN_MOTION_DOT":0.00064183,"MEAN_MOTION_DDOT":0},{"OBJECT_NAME":"KUIPER-00165","OBJECT_ID":"2025-217S","EPOCH":"2026-03-06T08:21:56.991456","MEAN_MOTION":14.79927601,"ECCENTRICITY":7.331e-5,"INCLINATION":51.9013,"RA_OF_ASC_NODE":50.3706,"ARG_OF_PERICENTER":85.6762,"MEAN_ANOMALY":274.4285,"EPHEMERIS_TYPE":0,"CLASSIFICATION_TYPE":"U","NORAD_CAT_ID":65778,"ELEMENT_SET_NO":999,"REV_AT_EPOCH":2448,"BSTAR":0.00017459593,"MEAN_MOTION_DOT":1.11e-5,"MEAN_MOTION_DDOT":0},{"OBJECT_NAME":"KUIPER-00166","OBJECT_ID":"2025-217T","EPOCH":"2026-03-05T07:34:07.724352","MEAN_MOTION":14.79992371,"ECCENTRICITY":6.772e-5,"INCLINATION":51.9042,"RA_OF_ASC_NODE":42.4609,"ARG_OF_PERICENTER":95.0603,"MEAN_ANOMALY":265.0437,"EPHEMERIS_TYPE":0,"CLASSIFICATION_TYPE":"U","NORAD_CAT_ID":65779,"ELEMENT_SET_NO":999,"REV_AT_EPOCH":2450,"BSTAR":0.00079158624,"MEAN_MOTION_DOT":5.827e-5,"MEAN_MOTION_DDOT":0},{"OBJECT_NAME":"KUIPER-00167","OBJECT_ID":"2025-217U","EPOCH":"2026-03-06T09:43:42.049920","MEAN_MOTION":14.79951769,"ECCENTRICITY":6.157e-5,"INCLINATION":51.8969,"RA_OF_ASC_NODE":60.0858,"ARG_OF_PERICENTER":73.7804,"MEAN_ANOMALY":286.3226,"EPHEMERIS_TYPE":0,"CLASSIFICATION_TYPE":"U","NORAD_CAT_ID":65780,"ELEMENT_SET_NO":999,"REV_AT_EPOCH":2435,"BSTAR":9.83353e-6,"MEAN_MOTION_DOT":-1.46e-6,"MEAN_MOTION_DDOT":0},{"OBJECT_NAME":"KUIPER-00168","OBJECT_ID":"2025-217V","EPOCH":"2026-03-06T06:56:22.216128","MEAN_MOTION":14.79925832,"ECCENTRICITY":0.00010252,"INCLINATION":51.9015,"RA_OF_ASC_NODE":43.1363,"ARG_OF_PERICENTER":82.0294,"MEAN_ANOMALY":278.0785,"EPHEMERIS_TYPE":0,"CLASSIFICATION_TYPE":"U","NORAD_CAT_ID":65781,"ELEMENT_SET_NO":999,"REV_AT_EPOCH":2458,"BSTAR":0.00078108366,"MEAN_MOTION_DOT":5.737e-5,"MEAN_MOTION_DDOT":0},{"OBJECT_NAME":"KUIPER-00169","OBJECT_ID":"2025-217W","EPOCH":"2026-03-06T03:35:10.255200","MEAN_MOTION":14.79813971,"ECCENTRICITY":7.91e-5,"INCLINATION":51.9015,"RA_OF_ASC_NODE":48.7635,"ARG_OF_PERICENTER":93.0798,"MEAN_ANOMALY":267.0255,"EPHEMERIS_TYPE":0,"CLASSIFICATION_TYPE":"U","NORAD_CAT_ID":65782,"ELEMENT_SET_NO":999,"REV_AT_EPOCH":2449,"BSTAR":0.00065034353,"MEAN_MOTION_DOT":4.726e-5,"MEAN_MOTION_DDOT":0},{"OBJECT_NAME":"KUIPER-00170","OBJECT_ID":"2025-217X","EPOCH":"2026-03-06T05:03:02.827296","MEAN_MOTION":14.79922492,"ECCENTRICITY":7.59e-5,"INCLINATION":51.8994,"RA_OF_ASC_NODE":53.4691,"ARG_OF_PERICENTER":98.3119,"MEAN_ANOMALY":261.793,"EPHEMERIS_TYPE":0,"CLASSIFICATION_TYPE":"U","NORAD_CAT_ID":65783,"ELEMENT_SET_NO":999,"REV_AT_EPOCH":2443,"BSTAR":0.00010431703,"MEAN_MOTION_DOT":5.74e-6,"MEAN_MOTION_DDOT":0},{"OBJECT_NAME":"KUIPER-00172","OBJECT_ID":"2025-217Z","EPOCH":"2026-03-06T14:00:01.000224","MEAN_MOTION":14.84859469,"ECCENTRICITY":0.00031214,"INCLINATION":51.9017,"RA_OF_ASC_NODE":32.5855,"ARG_OF_PERICENTER":292.4381,"MEAN_ANOMALY":167.5264,"EPHEMERIS_TYPE":0,"CLASSIFICATION_TYPE":"U","NORAD_CAT_ID":65785,"ELEMENT_SET_NO":999,"REV_AT_EPOCH":325,"BSTAR":-0.0075283754,"MEAN_MOTION_DOT":-0.00064246,"MEAN_MOTION_DDOT":0},{"OBJECT_NAME":"KUIPER-00173","OBJECT_ID":"2025-217AA","EPOCH":"2026-03-06T12:25:51.478752","MEAN_MOTION":14.81364819,"ECCENTRICITY":8.74e-5,"INCLINATION":51.9027,"RA_OF_ASC_NODE":46.4121,"ARG_OF_PERICENTER":32.5897,"MEAN_ANOMALY":327.512,"EPHEMERIS_TYPE":0,"CLASSIFICATION_TYPE":"U","NORAD_CAT_ID":65786,"ELEMENT_SET_NO":999,"REV_AT_EPOCH":2455,"BSTAR":-0.021175023,"MEAN_MOTION_DOT":-0.00163282,"MEAN_MOTION_DDOT":0},{"OBJECT_NAME":"KUIPER-00174","OBJECT_ID":"2025-217AB","EPOCH":"2026-03-06T07:44:59.319456","MEAN_MOTION":14.7994086,"ECCENTRICITY":0.00012108,"INCLINATION":51.9037,"RA_OF_ASC_NODE":43.0125,"ARG_OF_PERICENTER":67.0786,"MEAN_ANOMALY":293.0304,"EPHEMERIS_TYPE":0,"CLASSIFICATION_TYPE":"U","NORAD_CAT_ID":65787,"ELEMENT_SET_NO":999,"REV_AT_EPOCH":2458,"BSTAR":0.00073976843,"MEAN_MOTION_DOT":5.424e-5,"MEAN_MOTION_DDOT":0},{"OBJECT_NAME":"KUIPER-00176","OBJECT_ID":"2025-217AC","EPOCH":"2026-03-06T08:58:41.192832","MEAN_MOTION":14.79924144,"ECCENTRICITY":7.049e-5,"INCLINATION":51.8999,"RA_OF_ASC_NODE":57.7577,"ARG_OF_PERICENTER":97.7411,"MEAN_ANOMALY":262.3632,"EPHEMERIS_TYPE":0,"CLASSIFICATION_TYPE":"U","NORAD_CAT_ID":65788,"ELEMENT_SET_NO":999,"REV_AT_EPOCH":2438,"BSTAR":0.0002702851,"MEAN_MOTION_DOT":1.839e-5,"MEAN_MOTION_DDOT":0},{"OBJECT_NAME":"KUIPER-00101","OBJECT_ID":"2025-228A","EPOCH":"2026-03-05T07:20:27.900672","MEAN_MOTION":14.7992694,"ECCENTRICITY":5.69e-5,"INCLINATION":51.9032,"RA_OF_ASC_NODE":19.9631,"ARG_OF_PERICENTER":116.532,"MEAN_ANOMALY":243.57,"EPHEMERIS_TYPE":0,"CLASSIFICATION_TYPE":"U","NORAD_CAT_ID":65947,"ELEMENT_SET_NO":999,"REV_AT_EPOCH":2258,"BSTAR":0.00019647,"MEAN_MOTION_DOT":1.277e-5,"MEAN_MOTION_DDOT":0},{"OBJECT_NAME":"KUIPER-00113","OBJECT_ID":"2025-228B","EPOCH":"2026-03-06T13:27:06.591744","MEAN_MOTION":14.79936481,"ECCENTRICITY":4.18e-5,"INCLINATION":51.9021,"RA_OF_ASC_NODE":9.4322,"ARG_OF_PERICENTER":125.7029,"MEAN_ANOMALY":234.3972,"EPHEMERIS_TYPE":0,"CLASSIFICATION_TYPE":"U","NORAD_CAT_ID":65948,"ELEMENT_SET_NO":999,"REV_AT_EPOCH":2283,"BSTAR":-9.1212517e-5,"MEAN_MOTION_DOT":-9.16e-6,"MEAN_MOTION_DDOT":0},{"OBJECT_NAME":"KUIPER-00117","OBJECT_ID":"2025-228C","EPOCH":"2026-03-06T06:05:45.704544","MEAN_MOTION":14.79932164,"ECCENTRICITY":0.00011663,"INCLINATION":51.9054,"RA_OF_ASC_NODE":13.2925,"ARG_OF_PERICENTER":68.8112,"MEAN_ANOMALY":291.2975,"EPHEMERIS_TYPE":0,"CLASSIFICATION_TYPE":"U","NORAD_CAT_ID":65949,"ELEMENT_SET_NO":999,"REV_AT_EPOCH":2275,"BSTAR":-7.530291e-6,"MEAN_MOTION_DOT":-2.79e-6,"MEAN_MOTION_DDOT":0},{"OBJECT_NAME":"KUIPER-00121","OBJECT_ID":"2025-228D","EPOCH":"2026-03-06T00:33:04.752288","MEAN_MOTION":14.79934695,"ECCENTRICITY":0.00012083,"INCLINATION":51.9019,"RA_OF_ASC_NODE":9.3042,"ARG_OF_PERICENTER":108.4687,"MEAN_ANOMALY":251.6407,"EPHEMERIS_TYPE":0,"CLASSIFICATION_TYPE":"U","NORAD_CAT_ID":65950,"ELEMENT_SET_NO":999,"REV_AT_EPOCH":2279,"BSTAR":0.00049913756,"MEAN_MOTION_DOT":3.586e-5,"MEAN_MOTION_DDOT":0}]
